NORAD_CAT_ID,OBJECT_NAME,OBJECT_TYPE,EPOCH,MEAN_MOTION,ECCENTRICITY,INCLINATION,RA_OF_ASC_NODE,ARG_OF_PERICENTER,MEAN_ANOMALY,BSTAR,MEAN_MOTION_DOT,MEAN_MOTION_DDOT,TLE_LINE0,TLE_LINE1,TLE_LINE2,SEMIMAJOR_AXIS,PERIOD,APOGEE,PERIGEE,DECAYED
51115.0,STARLINK-3397,PAYLOAD,2022-04-09 22:00:00,15.58212657,0.000153,53.217,234.7537,46.7889,191.0285,-0.010172,-0.00716476,0.0,0 STARLINK-3397,1 51115U 22005M   22099.91667824 -.00716476  00000-0 -10172-1 0  9992,2 51115  53.2170 234.7537 0001530  46.7889 191.0285 15.58212657 14042,6770.967,92.414,393.86800000000005,391.796,0.0
51115.0,STARLINK-3397,PAYLOAD,2022-04-10 14:00:01,15.57192463,0.0001847,53.2173,231.5274,28.3991,350.0206,-0.010564,-0.00716048,0.0,0 STARLINK-3397,1 51115U 22005M   22100.58334491 -.00716048  00000-0 -10564-1 0  9999,2 51115  53.2173 231.5274 0001847  28.3991 350.0206 15.57192463  3701,6773.924,92.474,397.04,394.538,0.0
51115.0,STARLINK-3397,PAYLOAD,2022-04-10 20:00:01,15.56807787,0.0001396999999999,53.2173,230.3196,42.3212,298.1922,-0.010645,-0.00711497,0.0,0 STARLINK-3397,1 51115U 22005M   22100.83334491 -.00711497  00000-0 -10645-1 0  9990,2 51115  53.2173 230.3196 0001397  42.3212 298.1922 15.56807787 14185,6775.04,92.497,397.851,395.958,0.0
51115.0,STARLINK-3397,PAYLOAD,2022-04-10 22:00:00,15.566815,0.0001522,53.217,229.9164,38.8176,48.9839,-0.010733,-0.00713805,0.0,0 STARLINK-3397,1 51115U 22005M   22100.91667824 -.00713805  00000-0 -10733-1 0  9991,2 51115  53.2170 229.9164 0001522  38.8176  48.9839 15.56681500  3707,6775.406,92.504,398.302,396.24,0.0
51115.0,STARLINK-3397,PAYLOAD,2022-04-11 14:00:01,15.55659311,0.0001812,53.2174,226.6974,38.5141,186.2138,-0.011096,-0.00710653,0.0,0 STARLINK-3397,1 51115U 22005M   22101.58334491 -.00710653  00000-0 -11096-1 0  9997,2 51115  53.2174 226.6974 0001812  38.5141 186.2138 15.55659311  3707,6778.374,92.565,401.467,399.011,0.0
51115.0,STARLINK-3397,PAYLOAD,2022-04-11 20:00:01,15.55276401,0.000175,53.2172,225.4922,39.2213,146.2211,-0.011226,-0.00708966,0.0,0 STARLINK-3397,1 51115U 22005M   22101.83334491 -.00708966  00000-0 -11226-1 0  9994,2 51115  53.2172 225.4922 0001750  39.2213 146.2211 15.55276401 14349,6779.486,92.588,402.538,400.165,0.0
51115.0,STARLINK-3397,PAYLOAD,2022-04-11 22:00:00,15.55153284,0.0001587,53.2172,225.0897,40.3564,251.9134,-0.011413,-0.0071674999999999,0.0,0 STARLINK-3397,1 51115U 22005M   22101.91667824 -.00716750  00000-0 -11413-1 0  9990,2 51115  53.2172 225.0897 0001587  40.3564 251.9134 15.55153284  3716,6779.844,92.595,402.785,400.633,0.0
51115.0,STARLINK-3397,PAYLOAD,2022-04-12 14:00:01,15.54132141,0.0002171,53.2175,221.8787,22.4626,43.056,-0.011815,-0.0071485,0.0,0 STARLINK-3397,1 51115U 22005M   22102.58334491 -.00714850  00000-0 -11815-1 0  9990,2 51115  53.2175 221.8787 0002171  22.4626  43.0560 15.54132141  3712,6782.814,92.656,406.151,403.206,0.0
51115.0,STARLINK-3397,PAYLOAD,2022-04-12 20:00:01,15.53748716,0.0001479,53.2171,220.676,37.7533,347.1013,-0.011932,-0.00711958,0.0,0 STARLINK-3397,1 51115U 22005M   22102.83334491 -.00711958  00000-0 -11932-1 0  9994,2 51115  53.2171 220.6760 0001479  37.7533 347.1013 15.53748716 14490,6783.929,92.679,406.798,404.791,0.0
51115.0,STARLINK-3397,PAYLOAD,2022-04-12 22:00:00,15.53492748,0.0001599,53.2157,220.2761,38.8417,92.447,-0.0089185,-0.00538928,0.0,0 STARLINK-3397,1 51115U 22005M   22102.91667824 -.00538928  00000-0 -89185-2 0  9992,2 51115  53.2157 220.2761 0001599  38.8417  92.4470 15.53492748  3673,6784.675,92.694,407.624,405.455,0.0
51115.0,STARLINK-3397,PAYLOAD,2022-04-13 14:00:03,15.52600657,0.0001799,53.2172,217.0707,38.0505,222.8751,-0.012448,-0.00712303,0.0,0 STARLINK-3397,1 51115U 22005M   22103.58336806 -.00712303  00000-0 -12448-1 0  9997,2 51115  53.2172 217.0707 0001799  38.0505 222.8751 15.52600657  3700,6787.273,92.748,410.359,407.917,0.0
51115.0,STARLINK-3397,PAYLOAD,2022-04-13 22:00:00,15.52092663,0.000133,53.2172,215.4703,50.8549,273.8073,-0.012735,-0.00715075,0.0,0 STARLINK-3397,1 51115U 22005M   22103.91667824 -.00715075  00000-0 -12735-1 0  9999,2 51115  53.2172 215.4703 0001330  50.8549 273.8073 15.52092663 14661,6788.754,92.778,411.522,409.716,0.0
51115.0,STARLINK-3397,PAYLOAD,2022-04-14 14:00:01,15.5107262,0.0001813,53.2172,212.2742,33.3633,57.1935,-0.013202,-0.00723826,0.0,0 STARLINK-3397,1 51115U 22005M   22104.58334491 -.00723826  00000-0 -13202-1 0  9997,2 51115  53.2172 212.2742 0001813  33.3633  57.1935 15.51072620  3708,6791.73,92.839,414.826,412.364,0.0
51115.0,STARLINK-3397,PAYLOAD,2022-04-14 22:00:00,15.50561628,0.0001558,53.2172,210.6769,45.5377,107.0484,-0.013409,-0.00721943,0.0,0 STARLINK-3397,1 51115U 22005M   22104.91667824 -.00721943  00000-0 -13409-1 0  9990,2 51115  53.2172 210.6769 0001558  45.5377 107.0484 15.50561628  3709,6793.222,92.87,416.146,414.029,0.0
51115.0,STARLINK-3397,PAYLOAD,2022-04-15 06:00:00,15.50051512,0.0001733,53.2174,209.0803,42.0874,171.9147,-0.0136389999999999,-0.00721171,0.0,0 STARLINK-3397,1 51115U 22005M   22105.25001157 -.00721171  00000-0 -13639-1 0  9997,2 51115  53.2174 209.0803 0001733  42.0874 171.9147 15.50051512 14873,6794.7130000000025,92.9,417.755,415.4,0.0
51115.0,STARLINK-3397,PAYLOAD,2022-04-15 14:00:01,15.49514669,0.0001956,53.2176,207.4887,35.1892,239.6203,-0.012631,-0.0065201,0.0,0 STARLINK-3397,1 51115U 22005M   22105.58334491 -.00652010  00000-0 -12631-1 0  9999,2 51115  53.2176 207.4887 0001956  35.1892 239.6203 15.49514669  3710,6796.281999999997,92.932,419.476,416.817,0.0
51115.0,STARLINK-3397,PAYLOAD,2022-04-15 22:00:00,15.48957346,0.0001599,53.2174,205.8958,44.6566,290.3429,-0.0003055,-0.00017191,0.0,0 STARLINK-3397,1 51115U 22005M   22105.91667824 -.00017191  00000-0 -30550-3 0  9992,2 51115  53.2174 205.8958 0001599  44.6566 290.3429 15.48957346 14971,6797.9119999999975,92.966,420.864,418.69,0.0
51115.0,STARLINK-3397,PAYLOAD,2022-04-16 14:00:01,15.4899331,0.0002047,53.2138,202.7235,40.7417,53.9392,-0.00011864,-6.967e-05,0.0,0 STARLINK-3397,1 51115U 22005M   22106.58334491 -.00006967  00000-0 -11864-3 0  9993,2 51115  53.2138 202.7235 0002047  40.7417  53.9392 15.48993310 15071,6797.807,92.964,421.06300000000016,418.28,0.0
51115.0,STARLINK-3397,PAYLOAD,2022-04-16 22:00:01,15.49011043,0.0001871,53.2134,201.1314,37.3842,117.2045,-0.0017695,-0.0009664,0.0,0 STARLINK-3397,1 51115U 22005M   22106.91668981 -.00096640  00000-0 -17695-2 0  9998,2 51115  53.2134 201.1314 0001871  37.3842 117.2045 15.49011043  3695,6797.755,92.963,420.892,418.348,0.0
51115.0,STARLINK-3397,PAYLOAD,2022-04-17 06:00:00,15.48944878,0.0001692,53.2136,199.5396,41.3284,173.0078,0.00059018,0.00032092,0.0,0 STARLINK-3397,1 51115U 22005M   22107.25001157  .00032092  00000-0  59018-3 0  9997,2 51115  53.2136 199.5396 0001692  41.3284 173.0078 15.48944878 15186,6797.948,92.967,420.964,418.663,0.0
51115.0,STARLINK-3397,PAYLOAD,2022-04-17 14:00:01,15.48950601,0.000192,53.2137,197.9508,35.1884,238.9409,0.00019441,0.00010244,0.0,0 STARLINK-3397,1 51115U 22005M   22107.58334491  .00010244  00000-0  19441-3 0  9994,2 51115  53.2137 197.9508 0001920  35.1884 238.9409 15.48950601  3698,6797.932,92.966,421.102,418.491,0.0
51115.0,STARLINK-3397,PAYLOAD,2022-04-17 22:00:00,15.48989832,0.0001779,53.2136,196.3588,31.4034,302.5269,-0.0020995,-0.00114238,0.0,0 STARLINK-3397,1 51115U 22005M   22107.91667824 -.00114238  00000-0 -20995-2 0  9995,2 51115  53.2136 196.3588 0001779  31.4034 302.5269 15.48989832  3708,6797.816999999999,92.964,420.891,418.473,0.0
51115.0,STARLINK-3397,PAYLOAD,2022-04-18 06:00:00,15.48916984,0.0001685,53.2138,194.767,33.7224,359.9913,0.00049626,0.00026869,0.0,0 STARLINK-3397,1 51115U 22005M   22108.25001157  .00026869  00000-0  49626-3 0  9997,2 51115  53.2138 194.7670 0001685  33.7224 359.9913 15.48916984 15338,6798.03,92.968,421.041,418.75,0.0
51115.0,STARLINK-3397,PAYLOAD,2022-04-18 14:00:01,15.48652448,0.0001973,53.2164,193.1708,33.5069,60.1177,0.0016577,0.000907,0.0,0 STARLINK-3397,1 51115U 22005M   22108.58334491  .00090700  00000-0  16577-2 0  9996,2 51115  53.2164 193.1708 0001973  33.5069  60.1177 15.48652448 15387,6798.804,92.984,422.011,419.328,0.0
51115.0,STARLINK-3397,PAYLOAD,2022-04-18 20:00:01,15.48669522,0.0001916,53.2164,191.9743,39.0386,9.2617,-0.0037097,-0.00197179,0.0,0 STARLINK-3397,1 51115U 22005M   22108.83334491 -.00197179  00000-0 -37097-2 0  9994,2 51115  53.2164 191.9743 0001916  39.0386   9.2617 15.48669522 15421,6798.754,92.983,421.922,419.317,0.0
51115.0,STARLINK-3397,PAYLOAD,2022-04-18 22:00:00,15.48835133,0.0001832,53.2169,191.575,41.7226,111.3741,-0.011708,-0.00594369,0.0,0 STARLINK-3397,1 51115U 22005M   22108.91667824 -.00594369  00000-0 -11708-1 0  9994,2 51115  53.2169 191.5750 0001832  41.7226 111.3741 15.48835133  3692,6798.27,92.973,421.38,418.889,0.0
51115.0,STARLINK-3397,PAYLOAD,2022-04-19 06:00:00,15.48410254,0.0001838,53.2176,189.9806,38.4299,174.0677,-0.012877,-0.00640212,0.0,0 STARLINK-3397,1 51115U 22005M   22109.25001157 -.00640212  00000-0 -12877-1 0  9990,2 51115  53.2176 189.9806 0001838  38.4299 174.0677 15.48410254 15490,6799.513000000001,92.999,422.628,420.128,0.0
51115.0,STARLINK-3397,PAYLOAD,2022-04-19 14:00:01,15.47954649,0.0002205,53.2177,188.3907,27.6705,243.6911,-0.01311,-0.00641405,0.0,0 STARLINK-3397,1 51115U 22005M   22109.58334491 -.00641405  00000-0 -13110-1 0  9992,2 51115  53.2177 188.3907 0002205  27.6705 243.6911 15.47954649  3690,6800.847,93.026,424.212,421.213,0.0
51115.0,STARLINK-3397,PAYLOAD,2022-04-20 06:00:00,15.47043051,0.0001786999999999,53.2176,185.2084,30.4797,356.9702,-0.013518,-0.00640609,0.0,0 STARLINK-3397,1 51115U 22005M   22110.25001157 -.00640609  00000-0 -13518-1 0  9995,2 51115  53.2176 185.2084 0001787  30.4797 356.9702 15.47043051 15648,6803.519,93.081,426.599,424.168,0.0
